[{"OBJECT_NAME":"DONGPO 08","OBJECT_ID":"2022-167E","EPOCH":"2026-03-09T22:57:52.742880","MEAN_MOTION":15.31542505,"ECCENTRICITY":0.00092155,"INCLINATION":97.6764,"RA_OF_ASC_NODE":233.3854,"ARG_OF_PERICENTER":153.9158,"MEAN_ANOMALY":206.2548,"EPHEMERIS_TYPE":0,"CLASSIFICATION_TYPE":"U","NORAD_CAT_ID":54686,"ELEMENT_SET_NO":999,"REV_AT_EPOCH":18012,"BSTAR":0.0004734784,"MEAN_MOTION_DOT":0.0001437,"MEAN_MOTION_DDOT":0},{"OBJECT_NAME":"STARLINK-31972","OBJECT_ID":"2024-106B","EPOCH":"2026-03-09T02:44:34.849536","MEAN_MOTION":15.27594941,"ECCENTRICITY":0.00030739,"INCLINATION":43.009,"RA_OF_ASC_NODE":335.8745,"ARG_OF_PERICENTER":262.8714,"MEAN_ANOMALY":97.1788,"EPHEMERIS_TYPE":0,"CLASSIFICATION_TYPE":"U","NORAD_CAT_ID":59923,"ELEMENT_SET_NO":999,"REV_AT_EPOCH":10048,"BSTAR":-0.00014339191,"MEAN_MOTION_DOT":-4.209e-5,"MEAN_MOTION_DDOT":0}]
